STARLINK-6187           
1 56546U 23065AV  23362.08946506  .00009135  00000+0  69033-3 0  9997
2 56546  43.0029 264.3922 0001231 266.2688  93.8013 15.02539692 35744
STARLINK-6291           
1 56547U 23065AW  23362.20799272  .00008198  00000+0  62110-3 0  9995
2 56547  43.0028 263.5635 0001336 273.5348  86.5342 15.02542204 35765
STARLINK-6244           
1 56548U 23065AX  23362.21797895  .00008525  00000+0  64513-3 0  9999
2 56548  43.0031 263.6382 0001370 264.2966  95.7720 15.02550641 34980
STARLINK-6263           
1 56549U 23065AY  23362.20244021  .00002865  00000+0  22701-3 0  9991
2 56549  43.0034 263.5206 0001246 267.3352  92.7347 15.02543212 35768
STARLINK-6255           
1 56550U 23065AZ  23362.80962605  .00002557  00000+0  20435-3 0  9994
2 56550  43.0029 260.3362 0001109 270.2365  89.8350 15.02529934 35077
STARLINK-6199           
1 56551U 23065BA  23362.19799962  .00003091  00000+0  24377-3 0  9994
2 56551  43.0032 263.4862 0001334 271.4990  88.5700 15.02544400 35764
STARLINK-5802           
1 56552U 23065BB  23362.13818620 -.00000178  00000+0  18915-5 0  9999
2 56552  43.0036 263.8977 0000747 246.1093 113.9671 15.02542418 35756
STARLINK-6074           
1 56553U 23065BC  23362.12819420  .00002188  00000+0  17697-3 0  9994
2 56553  43.0029 263.8225 0001285 271.1423  88.9272 15.02540059 35755
STARLINK-6295           
1 56554U 23065BD  23362.19911054  .00009800  00000+0  73929-3 0  9996
2 56554  43.0025 263.4967 0001362 273.3299  86.7388 15.02548974 35761
STARLINK-6252           
1 56555U 23065BE  23362.12153629  .00001378  00000+0  11702-3 0  9999
2 56555  43.0036 263.7716 0001179 269.9796  90.0912 15.02537992 35756
STARLINK-5302           
1 56556U 23065BF  23362.78964415  .00000057  00000+0  19295-4 0  9994
2 56556  43.0033 260.1848 0001251 273.7087  86.3612 15.02539597 35071
STARLINK-6265           
1 56557U 23065BG  23362.78298699  .00000028  00000+0  17110-4 0  9991
2 56557  43.0036 260.1319 0001180 255.8001 104.2711 15.02536539 35079
STARLINK-6286           
1 56558U 23065BH  23362.11598552  .00002565  00000+0  20485-3 0  9996
2 56558  43.0023 263.7287 0001213 266.2933  93.7771 15.02539895 35757
STARLINK-30122          
1 56688U 23067A   23362.83405911  .00020176  00000+0  15042-2 0  9997
2 56688  43.0038 312.0431 0000869 262.2725  97.8018 15.02540523 34182
STARLINK-30129          
1 56689U 23067B   23362.35872025  .00024515  00000+0  18226-2 0  9997
2 56689  43.0041 314.5042 0001015 265.9510  94.1216 15.02554912 34961
STARLINK-30124          
1 56690U 23067C   23362.35539447  .00023802  00000+0  17704-2 0  9995
2 56690  43.0039 314.4888 0000839 275.5968  84.4779 15.02549977 34965
STARLINK-30087          
1 56691U 23067D   23362.29069106  .00009618  00000+0  47990-3 0  9999
2 56691  43.0018 304.7210 0014530 170.0392 190.0746 15.17576275 35075
STARLINK-30036          
1 56692U 23067E   23362.34873754  .00015226  00000+0  11392-2 0  9996
2 56692  43.0044 314.4566 0001069 213.3037 146.7738 15.02553876 34116
STARLINK-30067          
1 56693U 23067F   23362.34207711  .00028853  00000+0  21410-2 0  9993
2 56693  43.0042 314.4059 0001095 270.2046  89.8671 15.02556905 34965
STARLINK-30126          
1 56694U 23067G   23362.34540885  .00021919  00000+0  16319-2 0  9994
2 56694  43.0043 314.4309 0000718 244.9089 115.1679 15.02552255 34966
STARLINK-30121          
1 56695U 23067H   23362.27226632  .00006406  00000+0  48872-3 0  9992
2 56695  43.0024 314.7220 0000900 274.1043  85.9697 15.02544949 34953
STARLINK-30130          
1 56697U 23067K   23362.37858489  .00016833  00000+0  12573-2 0  9999
2 56697  43.0039 313.8154 0000651 264.4486  95.6282 15.02561823 34120
STARLINK-30068          
1 56698U 23067L   23362.31902536  .00030334  00000+0  22494-2 0  9992
2 56698  43.0038 301.2408 0001465 279.6922  80.3755 15.02561163 34853
STARLINK-30127          
1 56699U 23067M   23362.33541537  .00014037  00000+0  10516-2 0  9999
2 56699  43.0040 314.3550 0001121 273.2080  86.8634 15.02554145 34965
STARLINK-30053          
1 56700U 23067N   23362.33208797  .00017664  00000+0  13189-2 0  9998
2 56700  43.0038 314.3317 0000835 275.0974  84.9773 15.02549338 34960
STARLINK-30125          
1 56701U 23067P   23362.32875810  .00023440  00000+0  17436-2 0  9992
2 56701  43.0040 314.3061 0000840 271.6762  88.3984 15.02555093 34960
STARLINK-30117          
1 56702U 23067Q   23362.36537617  .00024445  00000+0  18174-2 0  9993
2 56702  43.0042 314.5152 0001167 271.4269  88.6440 15.02555169 34963
STARLINK-30132          
1 56703U 23067R   23362.32542468  .00026373  00000+0  19591-2 0  9996
2 56703  43.0041 314.2799 0001502 259.4154 100.6519 15.02554699 34968
STARLINK-30066          
1 56704U 23067S   23362.23896974  .00005441  00000+0  41748-3 0  9994
2 56704  43.0022 314.4743 0000972 259.0346 101.0387 15.02542344 34959
STARLINK-30080          
1 56705U 23067T   23362.84753252  .00022175  00000+0  16507-2 0  9990
2 56705  43.0039 298.3906 0001191 268.2433  91.8273 15.02552048 34347
STARLINK-30079          
1 56706U 23067U   23362.25229173  .00004196  00000+0  32545-3 0  9990
2 56706  43.0035 314.5869 0001191 243.0707 117.0014 15.02541568 34954
STARLINK-30070          
1 56707U 23067V   23362.32210071  .00026614  00000+0  19741-2 0  9997
2 56707  43.0037 314.2548 0001361 269.9026  90.1660 15.02605220 34963
STARLINK-30071          
1 56708U 23067W   23362.37526054  .00025893  00000+0  19223-2 0  9997
2 56708  43.0036 313.7916 0000962 255.7326 104.3410 15.02584624 34121
STARLINK-30085          
1 56709U 23067X   23362.84727535  .00034643  00000+0  25639-2 0  9998
2 56709  43.0043 311.3136 0000804 276.3028  83.7723 15.02580383 34193
STARLINK-6197           
1 56767U 23078A   23362.82114049 -.00000733  00000+0 -53684-4 0  9990
2 56767  69.9994 226.3019 0002820 260.8840  99.2000 14.98326780 32331
STARLINK-6198           
1 56768U 23078B   23362.80698427  .00000773  00000+0  70856-4 0  9998
2 56768  69.9986 186.5120 0003258 269.7557  90.3229 14.99310862 33311
STARLINK-5978           
1 56769U 23078C   23362.81278718  .00000234  00000+0  27419-4 0  9996
2 56769  69.9988 226.2715 0002427 266.8486  93.2396 14.98328804 32334
STARLINK-6342           
1 56770U 23078D   23362.81696479  .00000217  00000+0  25965-4 0  9991
2 56770  69.9987 226.2875 0002361 257.4412 102.6483 14.98328826 32330
STARLINK-6339           
1 56771U 23078E   23362.58950603 -.00000402  00000+0 -15769-5 0  9998
2 56771  69.9986 179.1846 0002606 247.7198 112.3722 15.69930182 33214
STARLINK-6275           
1 56772U 23078F   23362.80861308 -.00000009  00000+0  70741-5 0  9990
2 56772  69.9990 226.2570 0002375 260.3239  99.7651 14.98329938 32331
STARLINK-6296           
1 56773U 23078G   23362.58939985  .00001646  00000+0  15449-4 0  9993
2 56773  69.9986 179.1842 0003226 267.3309  92.7517 15.69928995 33215
STARLINK-6190           
1 56774U 23078H   23362.79625675  .00000191  00000+0  23765-4 0  9999
2 56774  69.9991 226.2163 0002719 271.3981  88.6866 14.98329558 32333
STARLINK-6292           
1 56775U 23078J   23362.65258893 -.00001396  00000+0 -98444-5 0  9996
2 56775  69.9979 179.0028 0002626 269.7116  90.3779 15.69937628 33485
STARLINK-6274           
1 56776U 23078K   23362.80238628 -.00000285  00000+0 -15642-4 0  9992
2 56776  69.9988 186.4955 0003150 271.8688  88.2111 14.99302099 33316
STARLINK-5582           
1 56777U 23078L   23362.82510325 -.00000702  00000+0 -51099-4 0  9992
2 56777  69.9999 206.4406 0002255 257.2942 102.7965 14.98317681 32825
STARLINK-6304           
1 56778U 23078M   23362.79796997 -.00000208  00000+0 -93503-5 0  9998
2 56778  69.9987 186.4801 0002992 269.1668  90.9149 14.99301104 33315
STARLINK-6231           
1 56779U 23078N   23362.57031615 -.00000299  00000+0 -17240-4 0  9997
2 56779  69.9995 186.8887 0002901 265.9709  94.1119 14.98329168 33012
STARLINK-5963           
1 56780U 23078P   23362.82091438 -.00000431  00000+0 -28371-4 0  9991
2 56780  70.0000 206.4386 0001800 250.1812 109.9153 14.98331047 32825
STARLINK-5989           
1 56781U 23078Q   23362.60393510  .00000068  00000+0  13524-4 0  9992
2 56781  69.9995 206.8709 0002297 269.8492  90.2404 14.98331095 32533
STARLINK-6352           
1 56782U 23078R   23362.59246745 -.00000401  00000+0 -25098-4 0  9990
2 56782  69.9990 186.9689 0002901 264.6992  95.3836 14.99296922 33024
STARLINK-6357           
1 56783U 23078S   23362.78498795 -.00000182  00000+0 -72098-5 0  9995
2 56783  69.9988 186.4361 0002855 261.7685  98.3151 14.99308194 33319
STARLINK-6354           
1 56784U 23078T   23362.78947599 -.00000847  00000+0 -61587-4 0  9995
2 56784  69.9988 186.4508 0002995 268.8976  91.1841 14.99297351 33318
STARLINK-5931           
1 56785U 23078U   23362.81256396 -.00000017  00000+0  63380-5 0  9990
2 56785  70.0000 206.3959 0002117 266.5339  93.5578 14.98328882 32824
STARLINK-6341           
1 56786U 23078V   23362.84819671 -.00000171  00000+0 -63025-5 0  9993
2 56786  69.9990 186.2545 0002887 265.7820  94.3010 14.99297699 33325
STARLINK-6326           
1 56787U 23078W   23362.77116024 -.00007758  00000+0 -62805-3 0  9999
2 56787  69.9990 186.3863 0002979 260.5656  99.5166 14.99240637 33310
STARLINK-6336           
1 56788U 23078X   23362.57690541  .00000930  00000+0  83657-4 0  9991
2 56788  69.9985 186.9125 0003616 272.6029  87.4717 14.99311872 33025
STARLINK-6325           
1 56789U 23078Y   23362.58708444 -.00001682  00000+0 -12223-4 0  9993
2 56789  69.9997 179.1758 0002475 261.3146  98.7769 15.69929865 33883
STARLINK-6345           
1 56790U 23078Z   23362.58824215  .00001490  00000+0  14156-4 0  9992
2 56790  69.9989 179.1804 0002989 264.4694  95.6161 15.69921615 33214
STARLINK-5977           
1 56791U 23078AA  23362.78590431  .00000043  00000+0  11213-4 0  9999
2 56791  69.9985 206.3065 0002645 267.4380  92.6477 14.99140038 32824
